OSCAR 7 (AO-7)          
1 07530U 74089B   26195.60626993 -.00000032  00000+0  86767-4 0  9990
2 07530 101.9905 209.1386 0012660  79.4493  40.0300 12.53698560363950
PHASE 3B (AO-10)        
1 14129U 83058B   26194.10401075 -.00000187  00000+0  00000+0 0  9996
2 14129  25.9345 215.2934 6002223 122.7887 309.2966  2.05872336296023
UOSAT 2 (UO-11)         
1 14781U 84021B   26195.47157643  .00000607  00000+0  67305-4 0  9993
2 14781  97.8076 160.7452 0009211  93.4410 266.7862 14.90847868261190
LUSAT (LO-19)           
1 20442U 90005G   26195.60099740  .00000042  00000+0  31820-4 0  9997
2 20442  98.8847 218.1611 0012525 122.9909 237.2480 14.34130652906320
EYESAT A (AO-27)        
1 22825U 93061C   26195.40994706  .00000040  00000+0  32390-4 0  9994
2 22825  98.6869 262.8119 0008802  28.0546 332.1110 14.30948934710890
ITAMSAT (IO-26)         
1 22826U 93061D   26195.17152562  .00000038  00000+0  31180-4 0  9998
2 22826  98.6816 262.4937 0009020  12.3228 347.8174 14.31376485711175
RADIO ROSTO (RS15)      
1 23439U 94085A   26195.52090915 -.00000036  00000+0  18080-3 0  9990
2 23439  64.8152 259.0113 0156894 358.8329   1.2209 11.27583545298982
JAS-2 (FO-29)           
1 24278U 96046B   26195.51842716  .00000013  00000+0  47764-4 0  9990
2 24278  98.5220  40.6440 0350393  25.6940 336.1154 13.53275620476866
TECHSAT 1B (GO-32)      
1 25397U 98043D   26195.52935320  .00000006  00000+0  22945-4 0  9993
2 25397  99.0085 188.9795 0002171 115.5342 244.6061 14.24433285455225
ISS (ZARYA)             
1 25544U 98067A   26195.41159911  .00003993  00000+0  80585-4 0  9997
2 25544  51.6306 165.3606 0006702 294.7447  65.2843 15.49007257575973
PCSAT (NO-44)           
1 26931U 01043C   26195.32908449  .00000011  00000+0  34933-4 0  9998
2 26931  67.0494 174.0696 0005927 266.5603  93.4821 14.31964812294334
SAUDISAT 1C (SO-50)     
1 27607U 02058C   26195.33002808  .00000387  00000+0  63645-4 0  9999
2 27607  64.5518  45.0024 0074555 257.4262 101.8498 14.83097490268486
CUTE-1 (CO-55)          
1 27844U 03031E   26195.57423981  .00000140  00000+0  79585-4 0  9996
2 27844  98.6742 203.7891 0010828 104.2879 255.9503 14.24351311195574
CUBESAT XI-IV (CO-57)   
1 27848U 03031J   26195.57646245  .00000117  00000+0  70501-4 0  9993
2 27848  98.6774 203.4819 0010526 121.1058 239.1154 14.23634354195275
MOZHAETS 4 (RS22)       
1 27939U 03042A   26195.65170929  .00000736  00000+0  12153-3 0  9991
2 27939  98.3469  20.7880 0011188 174.9452 274.4102 14.73514870219593
CUBESAT XI-V            
1 28895U 05043F   26195.37665838  .00000686  00000+0  11575-3 0  9994
2 28895  98.3013 351.5747 0015230 117.6296 242.6459 14.72701135105754
CUTE-1.7+APD II (CO-65) 
1 32785U 08021C   26195.55820328  .00002957  00000+0  18766-3 0  9995
2 32785  97.8290 177.5534 0007069 302.0160  58.0381 15.09697347989325
SEEDS II (CO-66)        
1 32791U 08021J   26195.54652954  .00010410  00000+0  32244-3 0  9999
2 32791  97.7520 194.7703 0002980 157.5049 202.6324 15.33652134991488
YUBILEINY (RS30)        
1 32953U 08025A   26195.54148591 -.00000026  00000+0 -25717-3 0  9991
2 32953  82.5055 338.4229 0018587 250.4926 109.4147 12.43180521823092
KKS-1 (KISEKI)          
1 33499U 09002H   26195.44486889  .00000631  00000+0  84150-4 0  9994
2 33499  98.1175 118.3190 0007365 191.5370 168.5675 14.83188128940231
SWISSCUBE               
1 35932U 09051B   26195.46674337  .00000473  00000+0  10293-3 0  9991
2 35932  98.4009 103.8280 0007810 121.0198 239.1771 14.62529965893148
BEESAT-1                
1 35933U 09051C   26195.62734649  .00000390  00000+0  88002-4 0  9995
2 35933  98.3936 103.5691 0006091 131.2948 228.8778 14.61761338893194
ITUPSAT1                
1 35935U 09051E   26195.29974150  .00000370  00000+0  86376-4 0  9993
2 35935  98.4019 102.3994 0008028 145.6513 214.5207 14.60478047892695
XIWANG-1 (HOPE-1)       
1 36122U 09072B   26195.60356281  .00000251  00000+0  77352-3 0  9990
2 36122 100.4032 148.9995 0007517 166.0726 194.0595 13.16441144796610
O/OREOS (USA 219)       
1 37224U 10062C   26195.58569600  .00001050  00000+0  10470-3 0  9999
2 37224  71.9697  18.2695 0013939   6.2905 353.8438 14.93850169120730
JUGNU                   
1 37839U 11058B   26195.20044442  .00000341  00000+0  38942-4 0  9995
2 37839  19.9593 144.3072 0018538  15.5090 113.9676 14.13783328762855
SRMSAT                  
1 37841U 11058D   26195.29196898  .00000343  00000+0  42066-4 0  9994
2 37841  19.9711 255.4136 0011787 141.3057 265.6885 14.11580990761657
STRAND-1                
1 39090U 13009E   26195.48684837  .00000131  00000+0  58407-4 0  9997
2 39090  98.3933  15.0510 0009374 143.0599 217.1235 14.37178635700984
ZACUBE-1 (TSHEPISOSAT)  
1 39417U 13066B   26195.46814736  .00001286  00000+0  10282-3 0  9994
2 39417  97.8008 157.9398 0043993 157.5329 202.7834 15.01326998684828
GOMX-1                  
1 39430U 13066Q   26195.49033501  .00000813  00000+0  12859-3 0  9992
2 39430  97.6469  34.2302 0128316 350.4797   9.3979 14.69542113673922
